start=new Date('2021-09-19T00:00:00.000Z').valueOf();
sats=[{"ELEMENT_SET_NO":"999","MEAN_MOTION_DDOT":"0.0000000000000","ARG_OF_PERICENTER":"127.4577","BSTAR":"-0.00001736700000","OBJECT_NAME":"STARLINK-2360","ECCENTRICITY":"0.00016610","FILE":"3118781","NORAD_CAT_ID":"47900","OBJECT_TYPE":"PAYLOAD","OBJECT_ID":"2021-021AS","EPOCH":"2021-09-18T15:51:54.274176","SITE":"AFETR","PERIAPSIS":"546.075","INCLINATION":"53.0579","REF_FRAME":"TEME","RCS_SIZE":"LARGE","COUNTRY_CODE":"US","LAUNCH_DATE":"2021-03-14","PERIOD":"95.592","TIME_SYSTEM":"UTC","RA_OF_ASC_NODE":"42.5590","MEAN_ELEMENT_THEORY":"SGP4","MEAN_ANOMALY":"232.6563","TLE_LINE1":"1 47900U 21021AS  21261.66104484 -.00000540  00000-0 -17367-4 0  9990","MEAN_MOTION_DOT":"-0.00000540","SEMIMAJOR_AXIS":"6925.361","REV_AT_EPOCH":"3006","APOAPSIS":"548.376","MEAN_MOTION":"15.06396051","GP_ID":"184973915","CENTER_NAME":"EARTH","EPHEMERIS_TYPE":"0","TLE_LINE2":"2 47900  53.0579  42.5590 0001661 127.4577 232.6563 15.06396051 30065","DECAY_DATE":null,"CLASSIFICATION_TYPE":"U"},{"TLE_LINE1":"1 47901U 21021AT  21261.68408050 -.00000424  00000-0 -95956-5 0  9991","MEAN_ANOMALY":"229.1662","MEAN_ELEMENT_THEORY":"SGP4","RA_OF_ASC_NODE":"32.4777","TIME_SYSTEM":"UTC","PERIOD":"95.592","DECAY_DATE":null,"CLASSIFICATION_TYPE":"U","TLE_LINE2":"2 47901  53.0498  32.4777 0001545 130.9461 229.1662 15.06394688 30192","EPHEMERIS_TYPE":"0","CENTER_NAME":"EARTH","GP_ID":"184974166","MEAN_MOTION":"15.06394688","APOAPSIS":"548.300","SEMIMAJOR_AXIS":"6925.365","REV_AT_EPOCH":"3019","MEAN_MOTION_DOT":"-0.00000424","PERIAPSIS":"546.160","SITE":"AFETR","EPOCH":"2021-09-18T16:25:04.555200","OBJECT_ID":"2021-021AT","OBJECT_TYPE":"PAYLOAD","NORAD_CAT_ID":"47901","FILE":"3118781","ECCENTRICITY":"0.00015450","OBJECT_NAME":"STARLINK-2361","MEAN_MOTION_DDOT":"0.0000000000000","ARG_OF_PERICENTER":"130.9461","BSTAR":"-0.00000959560000","ELEMENT_SET_NO":"999","LAUNCH_DATE":"2021-03-14","COUNTRY_CODE":"US","REF_FRAME":"TEME","RCS_SIZE":"LARGE","INCLINATION":"53.0498"},{"TIME_SYSTEM":"UTC","PERIOD":"95.592","RA_OF_ASC_NODE":"52.4865","TLE_LINE1":"1 47902U 21021AU  21261.67581249  .00000767  00000-0  70384-4 0  9998","MEAN_ANOMALY":"261.5010","MEAN_ELEMENT_THEORY":"SGP4","MEAN_MOTION":"15.06394561","APOAPSIS":"548.315","CENTER_NAME":"EARTH","GP_ID":"184974917","MEAN_MOTION_DOT":"0.00000767","SEMIMAJOR_AXIS":"6925.365","REV_AT_EPOCH":"3002","CLASSIFICATION_TYPE":"U","DECAY_DATE":null,"EPHEMERIS_TYPE":"0","TLE_LINE2":"2 47902  53.0557  52.4865 0001566  98.6156 261.5010 15.06394561 30022","OBJECT_NAME":"STARLINK-2362","ECCENTRICITY":"0.00015660","ELEMENT_SET_NO":"999","ARG_OF_PERICENTER":"98.6156","MEAN_MOTION_DDOT":"0.0000000000000","BSTAR":"0.00007038400000","OBJECT_ID":"2021-021AU","PERIAPSIS":"546.146","SITE":"AFETR","EPOCH":"2021-09-18T16:13:10.199136","FILE":"3118781","NORAD_CAT_ID":"47902","OBJECT_TYPE":"PAYLOAD","INCLINATION":"53.0557","LAUNCH_DATE":"2021-03-14","COUNTRY_CODE":"US","REF_FRAME":"TEME","RCS_SIZE":"LARGE"},{"RA_OF_ASC_NODE":"32.6847","PERIOD":"95.593","TIME_SYSTEM":"UTC","TLE_LINE1":"1 47903U 21021AV  21261.63342803  .00001014  00000-0  86953-4 0  9991","MEAN_ELEMENT_THEORY":"SGP4","MEAN_ANOMALY":"224.7520","GP_ID":"184973164","CENTER_NAME":"EARTH","APOAPSIS":"548.159","MEAN_MOTION":"15.06391248","REV_AT_EPOCH":"3053","SEMIMAJOR_AXIS":"6925.375","MEAN_MOTION_DOT":"0.00001014","DECAY_DATE":null,"CLASSIFICATION_TYPE":"U","EPHEMERIS_TYPE":"0","TLE_LINE2":"2 47903  53.0574  32.6847 0001327 135.3576 224.7520 15.06391248 30534","ECCENTRICITY":"0.00013270","OBJECT_NAME":"STARLINK-2363","ARG_OF_PERICENTER":"135.3576","MEAN_MOTION_DDOT":"0.0000000000000","BSTAR":"0.00008695300000","ELEMENT_SET_NO":"999","EPOCH":"2021-09-18T15:12:08.181792","SITE":"AFETR","PERIAPSIS":"546.321","OBJECT_ID":"2021-021AV","OBJECT_TYPE":"PAYLOAD","FILE":"3118781","NORAD_CAT_ID":"47903","INCLINATION":"53.0574","COUNTRY_CODE":"US","LAUNCH_DATE":"2021-03-14","RCS_SIZE":"LARGE","REF_FRAME":"TEME"},{"REF_FRAME":"TEME","RCS_SIZE":"LARGE","COUNTRY_CODE":"US","LAUNCH_DATE":"2021-03-14","INCLINATION":"53.0565","OBJECT_TYPE":"PAYLOAD","NORAD_CAT_ID":"47904","FILE":"3118623","EPOCH":"2021-09-18T15:06:48.727296","SITE":"AFETR","PERIAPSIS":"546.224","OBJECT_ID":"2021-021AW","BSTAR":"-0.00003864500000","MEAN_MOTION_DDOT":"0.0000000000000","ARG_OF_PERICENTER":"121.3699","ELEMENT_SET_NO":"999","ECCENTRICITY":"0.00014440","OBJECT_NAME":"STARLINK-2364","TLE_LINE2":"2 47904  53.0565  32.6974 0001444 121.3699 238.7431 15.06396690 29728","EPHEMERIS_TYPE":"0","CLASSIFICATION_TYPE":"U","DECAY_DATE":null,"SEMIMAJOR_AXIS":"6925.359","REV_AT_EPOCH":"2972","MEAN_MOTION_DOT":"-0.00000857","CENTER_NAME":"EARTH","GP_ID":"184948678","APOAPSIS":"548.224","MEAN_MOTION":"15.06396690","MEAN_ELEMENT_THEORY":"SGP4","MEAN_ANOMALY":"238.7431","TLE_LINE1":"1 47904U 21021AW  21261.62973064 -.00000857  00000-0 -38645-4 0  9991","RA_OF_ASC_NODE":"32.6974","PERIOD":"95.592","TIME_SYSTEM":"UTC"},{"TLE_LINE2":"2 47905  53.0572  32.7159 0001425 138.8188 221.2908 15.06392703 30301","EPHEMERIS_TYPE":"0","CLASSIFICATION_TYPE":"U","DECAY_DATE":null,"SEMIMAJOR_AXIS":"6925.371","REV_AT_EPOCH":"3030","MEAN_MOTION_DOT":"-0.00000738","CENTER_NAME":"EARTH","GP_ID":"184946557","MEAN_MOTION":"15.06392703","APOAPSIS":"548.223","MEAN_ANOMALY":"221.2908","MEAN_ELEMENT_THEORY":"SGP4","TLE_LINE1":"1 47905U 21021AX  21261.62605134 -.00000738  00000-0 -30683-4 0  9994","RA_OF_ASC_NODE":"32.7159","TIME_SYSTEM":"UTC","PERIOD":"95.593","RCS_SIZE":"LARGE","REF_FRAME":"TEME","LAUNCH_DATE":"2021-03-14","COUNTRY_CODE":"US","INCLINATION":"53.0572","OBJECT_TYPE":"PAYLOAD","NORAD_CAT_ID":"47905","FILE":"3118594","PERIAPSIS":"546.249","EPOCH":"2021-09-18T15:01:30.835776","SITE":"AFETR","OBJECT_ID":"2021-021AX","MEAN_MOTION_DDOT":"0.0000000000000","BSTAR":"-0.00003068300000","ARG_OF_PERICENTER":"138.8188","ELEMENT_SET_NO":"999","ECCENTRICITY":"0.00014250","OBJECT_NAME":"STARLINK-2365"},{"RCS_SIZE":"LARGE","REF_FRAME":"TEME","LAUNCH_DATE":"2021-03-14","COUNTRY_CODE":"US","INCLINATION":"53.0539","NORAD_CAT_ID":"47906","FILE":"3118594","OBJECT_TYPE":"PAYLOAD","OBJECT_ID":"2021-021AY","PERIAPSIS":"348.866","SITE":"AFETR","EPOCH":"2021-09-18T13:35:00.102624","ELEMENT_SET_NO":"999","MEAN_MOTION_DDOT":"0.0000000000000","ARG_OF_PERICENTER":"300.7761","BSTAR":"0.00016572000000","OBJECT_NAME":"STARLINK-2366","ECCENTRICITY":"0.00086100","EPHEMERIS_TYPE":"0","TLE_LINE2":"2 47906  53.0539   8.4865 0008610 300.7761  59.2409 15.71481969 30635","DECAY_DATE":null,"CLASSIFICATION_TYPE":"U","MEAN_MOTION_DOT":"0.00021108","SEMIMAJOR_AXIS":"6732.798","REV_AT_EPOCH":"3063","MEAN_MOTION":"15.71481969","APOAPSIS":"360.460","CENTER_NAME":"EARTH","GP_ID":"184946807","MEAN_ANOMALY":"59.2409","MEAN_ELEMENT_THEORY":"SGP4","TLE_LINE1":"1 47906U 21021AY  21261.56597341  .00021108  00000-0  16572-3 0  9990","TIME_SYSTEM":"UTC","PERIOD":"91.633","RA_OF_ASC_NODE":"8.4865"},{"LAUNCH_DATE":"2021-03-14","COUNTRY_CODE":"US","REF_FRAME":"TEME","RCS_SIZE":"LARGE","INCLINATION":"53.0573","PERIAPSIS":"545.874","EPOCH":"2021-09-18T16:50:19.605984","SITE":"AFETR","OBJECT_ID":"2021-021AZ","OBJECT_TYPE":"PAYLOAD","NORAD_CAT_ID":"47907","FILE":"3118781","ECCENTRICITY":"0.00019440","OBJECT_NAME":"STARLINK-2367","MEAN_MOTION_DDOT":"0.0000000000000","ARG_OF_PERICENTER":"104.9715","BSTAR":"0.00007757400000","ELEMENT_SET_NO":"999","CLASSIFICATION_TYPE":"U","DECAY_DATE":null,"TLE_LINE2":"2 47907  53.0573  52.3760 0001944 104.9715 255.1489 15.06397774 29880","EPHEMERIS_TYPE":"0","CENTER_NAME":"EARTH","GP_ID":"184973665","MEAN_MOTION":"15.06397774","APOAPSIS":"548.567","SEMIMAJOR_AXIS":"6925.355","REV_AT_EPOCH":"2988","MEAN_MOTION_DOT":"0.00000874","TLE_LINE1":"1 47907U 21021AZ  21261.70161581  .00000874  00000-0  77574-4 0  9997","MEAN_ANOMALY":"255.1489","MEAN_ELEMENT_THEORY":"SGP4","RA_OF_ASC_NODE":"52.3760","TIME_SYSTEM":"UTC","PERIOD":"95.592"},{"COUNTRY_CODE":"US","LAUNCH_DATE":"2021-03-14","REF_FRAME":"TEME","RCS_SIZE":"LARGE","INCLINATION":"53.0572","OBJECT_ID":"2021-021BA","EPOCH":"2021-09-18T17:00:56.547648","SITE":"AFETR","PERIAPSIS":"546.008","NORAD_CAT_ID":"47908","FILE":"3118781","OBJECT_TYPE":"PAYLOAD","OBJECT_NAME":"STARLINK-2368","ECCENTRICITY":"0.00017710","ELEMENT_SET_NO":"999","BSTAR":"0.00007941500000","MEAN_MOTION_DDOT":"0.0000000000000","ARG_OF_PERICENTER":"104.3951","CLASSIFICATION_TYPE":"U","DECAY_DATE":null,"EPHEMERIS_TYPE":"0","TLE_LINE2":"2 47908  53.0572  52.3409 0001771 104.3951 255.7235 15.06393140 29916","APOAPSIS":"548.461","MEAN_MOTION":"15.06393140","GP_ID":"184973916","CENTER_NAME":"EARTH","MEAN_MOTION_DOT":"0.00000901","SEMIMAJOR_AXIS":"6925.370","REV_AT_EPOCH":"2991","TLE_LINE1":"1 47908U 21021BA  21261.70898782  .00000901  00000-0  79415-4 0  9995","MEAN_ELEMENT_THEORY":"SGP4","MEAN_ANOMALY":"255.7235","PERIOD":"95.593","TIME_SYSTEM":"UTC","RA_OF_ASC_NODE":"52.3409"},{"ECCENTRICITY":"0.00017350","OBJECT_NAME":"STARLINK-2369","BSTAR":"0.00008230800000","MEAN_MOTION_DDOT":"0.0000000000000","ARG_OF_PERICENTER":"118.6565","ELEMENT_SET_NO":"999","SITE":"AFETR","EPOCH":"2021-09-18T15:47:56.784768","PERIAPSIS":"546.019","OBJECT_ID":"2021-021BB","OBJECT_TYPE":"PAYLOAD","NORAD_CAT_ID":"47909","FILE":"3118781","INCLINATION":"53.0578","COUNTRY_CODE":"US","LAUNCH_DATE":"2021-03-14","RCS_SIZE":"LARGE","REF_FRAME":"TEME","RA_OF_ASC_NODE":"42.5713","PERIOD":"95.592","TIME_SYSTEM":"UTC","TLE_LINE1":"1 47909U 21021BB  21261.65829612  .00000945  00000-0  82308-4 0  9999","MEAN_ELEMENT_THEORY":"SGP4","MEAN_ANOMALY":"241.4599","CENTER_NAME":"EARTH","GP_ID":"184974167","APOAPSIS":"548.422","MEAN_MOTION":"15.06397706","SEMIMAJOR_AXIS":"6925.356","REV_AT_EPOCH":"3021","MEAN_MOTION_DOT":"0.00000945","CLASSIFICATION_TYPE":"U","DECAY_DATE":null,"TLE_LINE2":"2 47909  53.0578  42.5713 0001735 118.6565 241.4599 15.06397706 30213","EPHEMERIS_TYPE":"0"}];
